start=new Date('2021-10-01T00:00:00.000Z').valueOf();
sats=[{"OBJECT_NAME":"STARLINK-1487","SITE":"AFETR","TLE_LINE2":"2 45758  53.0539 295.0889 0001141  83.7165 276.3954 15.06395539 72094","ELEMENT_SET_NO":"999","OBJECT_TYPE":"PAYLOAD","MEAN_MOTION_DDOT":"0.0000000000000","PERIAPSIS":"546.437","MEAN_MOTION":"15.06395539","NORAD_CAT_ID":"45758","OBJECT_ID":"2020-038AE","ECCENTRICITY":"0.00011410","COUNTRY_CODE":"US","BSTAR":"0.00012249000000","INCLINATION":"53.0539","MEAN_MOTION_DOT":"0.00001543","DECAY_DATE":null,"TLE_LINE1":"1 45758U 20038AE  21273.35332213  .00001543  00000-0  12249-3 0  9993","CENTER_NAME":"EARTH","REF_FRAME":"TEME","MEAN_ANOMALY":"276.3954","EPHEMERIS_TYPE":"0","MEAN_ELEMENT_THEORY":"SGP4","REV_AT_EPOCH":"7209","FILE":"3136969","LAUNCH_DATE":"2020-06-13","PERIOD":"95.592","APOAPSIS":"548.017","EPOCH":"2021-09-30T08:28:47.032032","ARG_OF_PERICENTER":"83.7165","SEMIMAJOR_AXIS":"6925.362","RCS_SIZE":"LARGE","TIME_SYSTEM":"UTC","RA_OF_ASC_NODE":"295.0889","GP_ID":"185858524","CLASSIFICATION_TYPE":"U"},{"MEAN_ANOMALY":"274.0252","REF_FRAME":"TEME","EPHEMERIS_TYPE":"0","MEAN_ELEMENT_THEORY":"SGP4","REV_AT_EPOCH":"7211","LAUNCH_DATE":"2020-06-13","FILE":"3136969","TLE_LINE2":"2 45759  53.0532 294.5805 0001197  86.0874 274.0252 15.06406295 72115","SITE":"AFETR","OBJECT_NAME":"STARLINK-1493","MEAN_MOTION_DDOT":"0.0000000000000","ELEMENT_SET_NO":"999","OBJECT_TYPE":"PAYLOAD","PERIAPSIS":"546.365","NORAD_CAT_ID":"45759","MEAN_MOTION":"15.06406295","OBJECT_ID":"2020-038AF","ECCENTRICITY":"0.00011970","COUNTRY_CODE":"US","BSTAR":"0.00028911000000","MEAN_MOTION_DOT":"0.00004028","INCLINATION":"53.0532","TLE_LINE1":"1 45759U 20038AF  21273.46759504  .00004028  00000-0  28911-3 0  9996","DECAY_DATE":null,"CENTER_NAME":"EARTH","CLASSIFICATION_TYPE":"U","GP_ID":"185859775","PERIOD":"95.592","EPOCH":"2021-09-30T11:13:20.211456","APOAPSIS":"548.023","ARG_OF_PERICENTER":"86.0874","SEMIMAJOR_AXIS":"6925.329","RCS_SIZE":"LARGE","TIME_SYSTEM":"UTC","RA_OF_ASC_NODE":"294.5805"},{"CLASSIFICATION_TYPE":"U","GP_ID":"185859526","TIME_SYSTEM":"UTC","RA_OF_ASC_NODE":"294.2649","PERIOD":"95.591","EPOCH":"2021-09-30T12:54:10.188288","APOAPSIS":"547.982","ARG_OF_PERICENTER":"92.4948","SEMIMAJOR_AXIS":"6925.312","RCS_SIZE":"LARGE","REV_AT_EPOCH":"7213","FILE":"3136969","LAUNCH_DATE":"2020-06-13","REF_FRAME":"TEME","MEAN_ANOMALY":"267.6174","EPHEMERIS_TYPE":"0","MEAN_ELEMENT_THEORY":"SGP4","COUNTRY_CODE":"US","ECCENTRICITY":"0.00011620","BSTAR":"0.00013490000000","MEAN_MOTION_DOT":"0.00001729","INCLINATION":"53.0537","CENTER_NAME":"EARTH","TLE_LINE1":"1 45760U 20038AG  21273.53761792  .00001729  00000-0  13490-3 0  9999","DECAY_DATE":null,"OBJECT_NAME":"STARLINK-1494","SITE":"AFETR","TLE_LINE2":"2 45760  53.0537 294.2649 0001162  92.4948 267.6174 15.06411782 72130","ELEMENT_SET_NO":"999","OBJECT_TYPE":"PAYLOAD","MEAN_MOTION_DDOT":"0.0000000000000","PERIAPSIS":"546.373","OBJECT_ID":"2020-038AG","MEAN_MOTION":"15.06411782","NORAD_CAT_ID":"45760"},{"RA_OF_ASC_NODE":"282.5432","TIME_SYSTEM":"UTC","ARG_OF_PERICENTER":"34.7135","SEMIMAJOR_AXIS":"6817.874","RCS_SIZE":"LARGE","PERIOD":"93.376","APOAPSIS":"441.190","EPOCH":"2021-09-30T12:16:11.758080","CLASSIFICATION_TYPE":"U","GP_ID":"185858774","MEAN_MOTION_DOT":"-0.00001523","INCLINATION":"53.0537","TLE_LINE1":"1 45761U 20038AH  21273.51124720 -.00001523  00000-0 -25520-4 0  9994","DECAY_DATE":null,"CENTER_NAME":"EARTH","ECCENTRICITY":"0.00021280","COUNTRY_CODE":"US","BSTAR":"-0.00002552000000","PERIAPSIS":"438.289","OBJECT_ID":"2020-038AH","NORAD_CAT_ID":"45761","MEAN_MOTION":"15.42159391","OBJECT_NAME":"STARLINK-1495","SITE":"AFETR","TLE_LINE2":"2 45761  53.0537 282.5432 0002128  34.7135 325.4008 15.42159391 72304","ELEMENT_SET_NO":"999","OBJECT_TYPE":"PAYLOAD","MEAN_MOTION_DDOT":"0.0000000000000","REV_AT_EPOCH":"7230","FILE":"3136969","LAUNCH_DATE":"2020-06-13","EPHEMERIS_TYPE":"0","MEAN_ELEMENT_THEORY":"SGP4","REF_FRAME":"TEME","MEAN_ANOMALY":"325.4008"},{"CLASSIFICATION_TYPE":"U","GP_ID":"185863747","RA_OF_ASC_NODE":"293.2045","TIME_SYSTEM":"UTC","SEMIMAJOR_AXIS":"6925.333","ARG_OF_PERICENTER":"79.0468","RCS_SIZE":"LARGE","PERIOD":"95.592","APOAPSIS":"547.883","EPOCH":"2021-09-30T18:33:51.664896","REV_AT_EPOCH":"7309","FILE":"3136990","LAUNCH_DATE":"2020-06-13","EPHEMERIS_TYPE":"0","MEAN_ELEMENT_THEORY":"SGP4","REF_FRAME":"TEME","MEAN_ANOMALY":"281.0632","INCLINATION":"53.0542","MEAN_MOTION_DOT":"0.00002010","TLE_LINE1":"1 45762U 20038AJ  21273.77351464  .00002010  00000-0  15374-3 0  9995","DECAY_DATE":null,"CENTER_NAME":"EARTH","ECCENTRICITY":"0.00009880","COUNTRY_CODE":"US","BSTAR":"0.00015374000000","PERIAPSIS":"546.514","MEAN_MOTION":"15.06404952","NORAD_CAT_ID":"45762","OBJECT_ID":"2020-038AJ","OBJECT_NAME":"STARLINK-1499","TLE_LINE2":"2 45762  53.0542 293.2045 0000988  79.0468 281.0632 15.06404952 73096","SITE":"AFETR","ELEMENT_SET_NO":"999","OBJECT_TYPE":"PAYLOAD","MEAN_MOTION_DDOT":"0.0000000000000"},{"PERIOD":"91.941","APOAPSIS":"372.064","EPOCH":"2021-09-30T07:57:14.243904","SEMIMAJOR_AXIS":"6747.865","ARG_OF_PERICENTER":"26.9248","RCS_SIZE":"LARGE","TIME_SYSTEM":"UTC","RA_OF_ASC_NODE":"253.9403","GP_ID":"185859276","CLASSIFICATION_TYPE":"U","OBJECT_NAME":"STARLINK-1501","SITE":"AFETR","TLE_LINE2":"2 45763  53.0531 253.9403 0003459  26.9248 333.1946 15.66221541 72878","ELEMENT_SET_NO":"999","OBJECT_TYPE":"PAYLOAD","MEAN_MOTION_DDOT":"0.0000000000000","PERIAPSIS":"367.396","MEAN_MOTION":"15.66221541","OBJECT_ID":"2020-038AK","NORAD_CAT_ID":"45763","COUNTRY_CODE":"US","ECCENTRICITY":"0.00034590","BSTAR":"0.00003498700000","MEAN_MOTION_DOT":"0.00003114","INCLINATION":"53.0531","TLE_LINE1":"1 45763U 20038AK  21273.33141486  .00003114  00000-0  34987-4 0  9997","DECAY_DATE":null,"CENTER_NAME":"EARTH","REF_FRAME":"TEME","MEAN_ANOMALY":"333.1946","EPHEMERIS_TYPE":"0","MEAN_ELEMENT_THEORY":"SGP4","REV_AT_EPOCH":"7287","FILE":"3136969","LAUNCH_DATE":"2020-06-13"},{"PERIOD":"95.592","EPOCH":"2021-09-30T18:23:14.996256","APOAPSIS":"547.883","ARG_OF_PERICENTER":"60.9072","SEMIMAJOR_AXIS":"6925.345","RCS_SIZE":"LARGE","TIME_SYSTEM":"UTC","RA_OF_ASC_NODE":"293.2276","GP_ID":"185863271","CLASSIFICATION_TYPE":"U","OBJECT_NAME":"STARLINK-1502","TLE_LINE2":"2 45764  53.0534 293.2276 0000972  60.9072 299.2015 15.06401126 73094","SITE":"AFETR","ELEMENT_SET_NO":"999","OBJECT_TYPE":"PAYLOAD","MEAN_MOTION_DDOT":"0.0000000000000","PERIAPSIS":"546.537","OBJECT_ID":"2020-038AL","NORAD_CAT_ID":"45764","MEAN_MOTION":"15.06401126","ECCENTRICITY":"0.00009720","COUNTRY_CODE":"US","BSTAR":"0.00004715900000","MEAN_MOTION_DOT":"0.00000421","INCLINATION":"53.0534","TLE_LINE1":"1 45764U 20038AL  21273.76614579  .00000421  00000-0  47159-4 0  9996","DECAY_DATE":null,"CENTER_NAME":"EARTH","REF_FRAME":"TEME","MEAN_ANOMALY":"299.2015","EPHEMERIS_TYPE":"0","MEAN_ELEMENT_THEORY":"SGP4","REV_AT_EPOCH":"7309","FILE":"3137030","LAUNCH_DATE":"2020-06-13"},{"RCS_SIZE":"LARGE","SEMIMAJOR_AXIS":"6710.016","ARG_OF_PERICENTER":"54.1424","EPOCH":"2021-09-30T15:44:27.239712","APOAPSIS":"333.598","PERIOD":"91.169","RA_OF_ASC_NODE":"273.8359","TIME_SYSTEM":"UTC","CLASSIFICATION_TYPE":"U","GP_ID":"185867414","OBJECT_ID":"2020-038AM","NORAD_CAT_ID":"45765","MEAN_MOTION":"15.79492135","PERIAPSIS":"330.164","MEAN_MOTION_DDOT":"0.0000000000000","ELEMENT_SET_NO":"999","OBJECT_TYPE":"PAYLOAD","TLE_LINE2":"2 45765  53.0558 273.8359 0002559  54.1424  56.0103 15.79492135 73352","SITE":"AFETR","OBJECT_NAME":"STARLINK-1508","TLE_LINE1":"1 45765U 20038AM  21273.65587083  .00498209  00000-0  25396-2 0  9996","DECAY_DATE":null,"CENTER_NAME":"EARTH","INCLINATION":"53.0558","MEAN_MOTION_DOT":"0.00498209","BSTAR":"0.00253960000000","ECCENTRICITY":"0.00025590","COUNTRY_CODE":"US","MEAN_ELEMENT_THEORY":"SGP4","EPHEMERIS_TYPE":"0","MEAN_ANOMALY":"56.0103","REF_FRAME":"TEME","LAUNCH_DATE":"2020-06-13","FILE":"3137142","REV_AT_EPOCH":"7335"},{"INCLINATION":"53.0557","MEAN_MOTION_DOT":"-0.00000136","TLE_LINE1":"1 45766U 20038AN  21273.48970511 -.00000136  00000-0  97592-5 0  9999","CENTER_NAME":"EARTH","DECAY_DATE":null,"ECCENTRICITY":"0.00010040","COUNTRY_CODE":"US","BSTAR":"0.00000975920000","PERIAPSIS":"546.516","NORAD_CAT_ID":"45766","OBJECT_ID":"2020-038AN","MEAN_MOTION":"15.06400881","OBJECT_NAME":"STARLINK-1509","TLE_LINE2":"2 45766  53.0557 294.4759 0001004  68.2130 291.8966 15.06400881 72115","SITE":"AFETR","OBJECT_TYPE":"PAYLOAD","ELEMENT_SET_NO":"999","MEAN_MOTION_DDOT":"0.0000000000000","REV_AT_EPOCH":"7211","FILE":"3136969","LAUNCH_DATE":"2020-06-13","EPHEMERIS_TYPE":"0","MEAN_ELEMENT_THEORY":"SGP4","REF_FRAME":"TEME","MEAN_ANOMALY":"291.8966","RA_OF_ASC_NODE":"294.4759","TIME_SYSTEM":"UTC","ARG_OF_PERICENTER":"68.2130","SEMIMAJOR_AXIS":"6925.346","RCS_SIZE":"LARGE","PERIOD":"95.592","EPOCH":"2021-09-30T11:45:10.521504","APOAPSIS":"547.906","CLASSIFICATION_TYPE":"U","GP_ID":"185858525"},{"CLASSIFICATION_TYPE":"U","GP_ID":"185865626","SEMIMAJOR_AXIS":"6925.366","ARG_OF_PERICENTER":"79.5303","RCS_SIZE":"LARGE","PERIOD":"95.593","APOAPSIS":"547.942","EPOCH":"2021-09-30T17:56:42.672768","RA_OF_ASC_NODE":"293.3160","TIME_SYSTEM":"UTC","EPHEMERIS_TYPE":"0","MEAN_ELEMENT_THEORY":"SGP4","REF_FRAME":"TEME","MEAN_ANOMALY":"280.5802","REV_AT_EPOCH":"7308","FILE":"3137083","LAUNCH_DATE":"2020-06-13","PERIAPSIS":"546.521","OBJECT_ID":"2020-038AP","NORAD_CAT_ID":"45767","MEAN_MOTION":"15.06394180","OBJECT_NAME":"STARLINK-1511","TLE_LINE2":"2 45767  53.0545 293.3160 0001026  79.5303 280.5802 15.06394180 73083","SITE":"AFETR","OBJECT_TYPE":"PAYLOAD","ELEMENT_SET_NO":"999","MEAN_MOTION_DDOT":"0.0000000000000","MEAN_MOTION_DOT":"0.00000014","INCLINATION":"53.0545","CENTER_NAME":"EARTH","TLE_LINE1":"1 45767U 20038AP  21273.74771612  .00000014  00000-0  19818-4 0  9998","DECAY_DATE":null,"ECCENTRICITY":"0.00010260","COUNTRY_CODE":"US","BSTAR":"0.00001981800000"}];
